KUIPER-00044            
1 64505U 25134F   25317.53114689  .00010076  00000+0  13449-2 0  9996
2 64505  51.9013  40.2430 0011564 248.4774 111.4956 14.80018899 22680
KUIPER-00046            
1 64506U 25134G   25317.60272765  .00016441  00000+0  21689-2 0  9992
2 64506  51.9001  36.3948 0011811 257.7250 102.2390 14.80115197 22741
KUIPER-00047            
1 64507U 25134H   25317.75003471 -.00019242  00000+0 -23401-2 0  9993
2 64507  51.8992   7.9251 0007684 268.2642 350.6586 14.82689126  5697
KUIPER-00048            
1 64508U 25134J   25317.55822088 -.00474573  00000+0 -64792-1 0  9994
2 64508  51.8991   9.0344 0002077  29.5003 330.6077 14.80720245 23120
KUIPER-00049            
1 64509U 25134K   25317.61732766  .00009854  00000+0  13160-2 0  9993
2 64509  51.9014  22.3191 0002721 255.0377 105.0284 14.80051880 22947
KUIPER-00050            
1 64510U 25134L   25317.39204214  .00016084  00000+0  14317-2 0  9990
2 64510  51.8922  20.2090 0004729 294.0668  65.9806 14.96167217 22951
KUIPER-00051            
1 64511U 25134M   25317.55289611  .00011538  00000+0  15400-2 0  9996
2 64511  51.9036  20.1716 0001853 268.5133  91.5617 14.79931377 22964
KUIPER-00052            
1 64512U 25134N   25317.75003471 -.00023711  00000+0 -22148-3 0  9993
2 64512  51.8676 341.7397 0006075 334.5841 209.7287 15.66102296  1805
